FLOCK 4H-10             
1 66713U 25276AZ  25361.18377758  .00007878  00000+0  39807-3 0  9997
2 66713  97.4388  72.6820 0003579 232.5745 127.5163 15.17333427  4310
FLOCK 4H-11             
1 66714U 25276BA  25361.24293181  .00012112  00000+0  60027-3 0  9997
2 66714  97.4407  72.7677 0002117 251.8161 108.2843 15.17893290  4328
FLOCK 4H-12             
1 66715U 25276BB  25361.25002315 -.00015484  00000+0 -75731-3 0  9991
2 66715  97.4379  72.7765 0002222 173.8072 269.8713 15.18145066  1303
FLOCK 4H-13             
1 66716U 25276BC  25361.23230831  .00017380  00000+0  85038-3 0  9992
2 66716  97.4418  72.7806 0002028 138.8220 221.3167 15.18259191  4320
FLOCK 4H-14             
1 66717U 25276BD  25360.83448002  .00007961  00000+0  39020-3 0  9993
2 66717  97.4407  72.3904 0001792 129.2859 230.8535 15.18400823  3517
FLOCK 4H-15             
1 66718U 25276BE  25361.25204481  .00006835  00000+0  34761-3 0  9998
2 66718  97.4415  72.7537 0003170 246.7284 113.3616 15.17156662  4325
FLOCK 4H-16             
1 66719U 25276BF  25361.25002315 -.00021012  00000+0 -10551-2 0  9997
2 66719  97.4428  72.7629 0003381 231.8906 128.1547 15.17289595  3746
FLOCK 4H-17             
1 66720U 25276BG  25361.25002315 -.00015282  00000+0 -74757-3 0  9990
2 66720  97.4429  72.8014 0002975 177.5361 266.2121 15.18135442  1738
FLOCK 4H-18             
1 66721U 25276BH  25361.18544897  .00007199  00000+0  36558-3 0  9992
2 66721  97.4375  72.6728 0002442 259.6287 100.4672 15.17190145  4314
FLOCK 4H-19             
1 66722U 25276BJ  25361.23129126  .00017627  00000+0  85959-3 0  9999
2 66722  97.4379  72.7663 0002600 144.4454 215.6954 15.18371151  3614
FLOCK 4H-20             
1 66723U 25276BK  25361.23054938  .00012827  00000+0  62658-3 0  9996
2 66723  97.4415  72.7828 0003158 158.3115 201.8254 15.18381694  3574
FLOCK 4H-21             
1 66724U 25276BL  25361.16403797 -.00191589  00000+0 -96419-2 0  9996
2 66724  97.4386  72.7042 0007175 349.7212  10.3874 15.18092804  3569
