CCSDS_OMM_VERS = 2.0
CREATION_DATE  = 
ORIGINATOR     = 

OBJECT_NAME    = FLOCK 4H-10
OBJECT_ID      = 2025-276AZ
CENTER_NAME    = EARTH
REF_FRAME      = TEME
TIME_SYSTEM    = UTC
MEAN_ELEMENT_THEORY = SGP/SGP4

EPOCH          = 2025-12-27T04:24:38.382912
MEAN_MOTION    = 15.17333427
ECCENTRICITY   = .00035798
INCLINATION    = 97.4388
RA_OF_ASC_NODE = 72.6820
ARG_OF_PERICENTER = 232.5745
MEAN_ANOMALY   = 127.5163

EPHEMERIS_TYPE = 0
CLASSIFICATION_TYPE = U
NORAD_CAT_ID   = 66713
ELEMENT_SET_NO = 999
REV_AT_EPOCH   = 431
BSTAR          = .39806637E-3
MEAN_MOTION_DOT = .7878E-4
MEAN_MOTION_DDOT = 0

CCSDS_OMM_VERS = 2.0
CREATION_DATE  = 
ORIGINATOR     = 

OBJECT_NAME    = FLOCK 4H-11
OBJECT_ID      = 2025-276BA
CENTER_NAME    = EARTH
REF_FRAME      = TEME
TIME_SYSTEM    = UTC
MEAN_ELEMENT_THEORY = SGP/SGP4

EPOCH          = 2025-12-27T05:49:49.308384
MEAN_MOTION    = 15.17893290
ECCENTRICITY   = .00021177
INCLINATION    = 97.4407
RA_OF_ASC_NODE = 72.7677
ARG_OF_PERICENTER = 251.8161
MEAN_ANOMALY   = 108.2843

EPHEMERIS_TYPE = 0
CLASSIFICATION_TYPE = U
NORAD_CAT_ID   = 66714
ELEMENT_SET_NO = 999
REV_AT_EPOCH   = 432
BSTAR          = .60026826E-3
MEAN_MOTION_DOT = .12112E-3
MEAN_MOTION_DDOT = 0

CCSDS_OMM_VERS = 2.0
CREATION_DATE  = 
ORIGINATOR     = 

OBJECT_NAME    = FLOCK 4H-12
OBJECT_ID      = 2025-276BB
CENTER_NAME    = EARTH
REF_FRAME      = TEME
TIME_SYSTEM    = UTC
MEAN_ELEMENT_THEORY = SGP/SGP4

EPOCH          = 2025-12-27T06:00:02.000160
MEAN_MOTION    = 15.18145066
ECCENTRICITY   = .00022222
INCLINATION    = 97.4379
RA_OF_ASC_NODE = 72.7765
ARG_OF_PERICENTER = 173.8072
MEAN_ANOMALY   = 269.8713

EPHEMERIS_TYPE = 0
CLASSIFICATION_TYPE = U
NORAD_CAT_ID   = 66715
ELEMENT_SET_NO = 999
REV_AT_EPOCH   = 130
BSTAR          = -.75731096E-3
MEAN_MOTION_DOT = -.15484E-3
MEAN_MOTION_DDOT = 0

CCSDS_OMM_VERS = 2.0
CREATION_DATE  = 
ORIGINATOR     = 

OBJECT_NAME    = FLOCK 4H-13
OBJECT_ID      = 2025-276BC
CENTER_NAME    = EARTH
REF_FRAME      = TEME
TIME_SYSTEM    = UTC
MEAN_ELEMENT_THEORY = SGP/SGP4

EPOCH          = 2025-12-27T05:34:31.437984
MEAN_MOTION    = 15.18259191
ECCENTRICITY   = .00020283
INCLINATION    = 97.4418
RA_OF_ASC_NODE = 72.7806
ARG_OF_PERICENTER = 138.8220
MEAN_ANOMALY   = 221.3167

EPHEMERIS_TYPE = 0
CLASSIFICATION_TYPE = U
NORAD_CAT_ID   = 66716
ELEMENT_SET_NO = 999
REV_AT_EPOCH   = 432
BSTAR          = .85037949E-3
MEAN_MOTION_DOT = .1738E-3
MEAN_MOTION_DDOT = 0

CCSDS_OMM_VERS = 2.0
CREATION_DATE  = 
ORIGINATOR     = 

OBJECT_NAME    = FLOCK 4H-14
OBJECT_ID      = 2025-276BD
CENTER_NAME    = EARTH
REF_FRAME      = TEME
TIME_SYSTEM    = UTC
MEAN_ELEMENT_THEORY = SGP/SGP4

EPOCH          = 2025-12-26T20:01:39.073728
MEAN_MOTION    = 15.18400823
ECCENTRICITY   = .0001792
INCLINATION    = 97.4407
RA_OF_ASC_NODE = 72.3904
ARG_OF_PERICENTER = 129.2859
MEAN_ANOMALY   = 230.8535

EPHEMERIS_TYPE = 0
CLASSIFICATION_TYPE = U
NORAD_CAT_ID   = 66717
ELEMENT_SET_NO = 999
REV_AT_EPOCH   = 351
BSTAR          = .3902E-3
MEAN_MOTION_DOT = .7961E-4
MEAN_MOTION_DDOT = 0

CCSDS_OMM_VERS = 2.0
CREATION_DATE  = 
ORIGINATOR     = 

OBJECT_NAME    = FLOCK 4H-15
OBJECT_ID      = 2025-276BE
CENTER_NAME    = EARTH
REF_FRAME      = TEME
TIME_SYSTEM    = UTC
MEAN_ELEMENT_THEORY = SGP/SGP4

EPOCH          = 2025-12-27T06:02:56.671584
MEAN_MOTION    = 15.17156662
ECCENTRICITY   = .00031706
INCLINATION    = 97.4415
RA_OF_ASC_NODE = 72.7537
ARG_OF_PERICENTER = 246.7284
MEAN_ANOMALY   = 113.3616

EPHEMERIS_TYPE = 0
CLASSIFICATION_TYPE = U
NORAD_CAT_ID   = 66718
ELEMENT_SET_NO = 999
REV_AT_EPOCH   = 432
BSTAR          = .34760914E-3
MEAN_MOTION_DOT = .6835E-4
MEAN_MOTION_DDOT = 0

CCSDS_OMM_VERS = 2.0
CREATION_DATE  = 
ORIGINATOR     = 

OBJECT_NAME    = FLOCK 4H-16
OBJECT_ID      = 2025-276BF
CENTER_NAME    = EARTH
REF_FRAME      = TEME
TIME_SYSTEM    = UTC
MEAN_ELEMENT_THEORY = SGP/SGP4

EPOCH          = 2025-12-27T06:00:02.000160
MEAN_MOTION    = 15.17289595
ECCENTRICITY   = .00033817
INCLINATION    = 97.4428
RA_OF_ASC_NODE = 72.7629
ARG_OF_PERICENTER = 231.8906
MEAN_ANOMALY   = 128.1547

EPHEMERIS_TYPE = 0
CLASSIFICATION_TYPE = U
NORAD_CAT_ID   = 66719
ELEMENT_SET_NO = 999
REV_AT_EPOCH   = 374
BSTAR          = -.10550958E-2
MEAN_MOTION_DOT = -.21012E-3
MEAN_MOTION_DDOT = 0

CCSDS_OMM_VERS = 2.0
CREATION_DATE  = 
ORIGINATOR     = 

OBJECT_NAME    = FLOCK 4H-17
OBJECT_ID      = 2025-276BG
CENTER_NAME    = EARTH
REF_FRAME      = TEME
TIME_SYSTEM    = UTC
MEAN_ELEMENT_THEORY = SGP/SGP4

EPOCH          = 2025-12-27T06:00:02.000160
MEAN_MOTION    = 15.18135442
ECCENTRICITY   = .00029753
INCLINATION    = 97.4429
RA_OF_ASC_NODE = 72.8014
ARG_OF_PERICENTER = 177.5361
MEAN_ANOMALY   = 266.2121

EPHEMERIS_TYPE = 0
CLASSIFICATION_TYPE = U
NORAD_CAT_ID   = 66720
ELEMENT_SET_NO = 999
REV_AT_EPOCH   = 173
BSTAR          = -.74756782E-3
MEAN_MOTION_DOT = -.15282E-3
MEAN_MOTION_DDOT = 0

CCSDS_OMM_VERS = 2.0
CREATION_DATE  = 
ORIGINATOR     = 

OBJECT_NAME    = FLOCK 4H-18
OBJECT_ID      = 2025-276BH
CENTER_NAME    = EARTH
REF_FRAME      = TEME
TIME_SYSTEM    = UTC
MEAN_ELEMENT_THEORY = SGP/SGP4

EPOCH          = 2025-12-27T04:27:02.791008
MEAN_MOTION    = 15.17190145
ECCENTRICITY   = .00024429
INCLINATION    = 97.4375
RA_OF_ASC_NODE = 72.6728
ARG_OF_PERICENTER = 259.6287
MEAN_ANOMALY   = 100.4672

EPHEMERIS_TYPE = 0
CLASSIFICATION_TYPE = U
NORAD_CAT_ID   = 66721
ELEMENT_SET_NO = 999
REV_AT_EPOCH   = 431
BSTAR          = .36557552E-3
MEAN_MOTION_DOT = .7199E-4
MEAN_MOTION_DDOT = 0

CCSDS_OMM_VERS = 2.0
CREATION_DATE  = 
ORIGINATOR     = 

OBJECT_NAME    = FLOCK 4H-19
OBJECT_ID      = 2025-276BJ
CENTER_NAME    = EARTH
REF_FRAME      = TEME
TIME_SYSTEM    = UTC
MEAN_ELEMENT_THEORY = SGP/SGP4

EPOCH          = 2025-12-27T05:33:03.564864
MEAN_MOTION    = 15.18371151
ECCENTRICITY   = .00026009
INCLINATION    = 97.4379
RA_OF_ASC_NODE = 72.7663
ARG_OF_PERICENTER = 144.4454
MEAN_ANOMALY   = 215.6954

EPHEMERIS_TYPE = 0
CLASSIFICATION_TYPE = U
NORAD_CAT_ID   = 66722
ELEMENT_SET_NO = 999
REV_AT_EPOCH   = 361
BSTAR          = .85958538E-3
MEAN_MOTION_DOT = .17627E-3
MEAN_MOTION_DDOT = 0

CCSDS_OMM_VERS = 2.0
CREATION_DATE  = 
ORIGINATOR     = 

OBJECT_NAME    = FLOCK 4H-20
OBJECT_ID      = 2025-276BK
CENTER_NAME    = EARTH
REF_FRAME      = TEME
TIME_SYSTEM    = UTC
MEAN_ELEMENT_THEORY = SGP/SGP4

EPOCH          = 2025-12-27T05:31:59.466432
MEAN_MOTION    = 15.18381694
ECCENTRICITY   = .0003158
INCLINATION    = 97.4415
RA_OF_ASC_NODE = 72.7828
ARG_OF_PERICENTER = 158.3115
MEAN_ANOMALY   = 201.8254

EPHEMERIS_TYPE = 0
CLASSIFICATION_TYPE = U
NORAD_CAT_ID   = 66723
ELEMENT_SET_NO = 999
REV_AT_EPOCH   = 357
BSTAR          = .62657617E-3
MEAN_MOTION_DOT = .12827E-3
MEAN_MOTION_DDOT = 0

CCSDS_OMM_VERS = 2.0
CREATION_DATE  = 
ORIGINATOR     = 

OBJECT_NAME    = FLOCK 4H-21
OBJECT_ID      = 2025-276BL
CENTER_NAME    = EARTH
REF_FRAME      = TEME
TIME_SYSTEM    = UTC
MEAN_ELEMENT_THEORY = SGP/SGP4

EPOCH          = 2025-12-27T03:56:12.880608
MEAN_MOTION    = 15.18092804
ECCENTRICITY   = .00071752
INCLINATION    = 97.4386
RA_OF_ASC_NODE = 72.7042
ARG_OF_PERICENTER = 349.7212
MEAN_ANOMALY   = 10.3874

EPHEMERIS_TYPE = 0
CLASSIFICATION_TYPE = U
NORAD_CAT_ID   = 66724
ELEMENT_SET_NO = 999
REV_AT_EPOCH   = 356
BSTAR          = -.96419129E-2
MEAN_MOTION_DOT = -.191589E-2
MEAN_MOTION_DDOT = 0

